SL-16 R/B               
1 25400U 98043G   26046.84058982  .00000067  00000+0  46957-4 0  9994
2 25400  98.8217   0.0542 0010961  78.8254 281.4157 14.26044501435872
SL-16 R/B               
1 25407U 98045B   26046.95945802  .00000315  00000+0  18317-3 0  9995
2 25407  71.0088 227.2707 0005689  47.5138 312.6465 14.16188552424027
ISS (ZARYA)             
1 25544U 98067A   26047.21491617  .00010277  00000+0  19660-3 0  9991
2 25544  51.6319 178.5071 0011017 103.7643 256.4573 15.48638586553009
CZ-4B R/B               
1 25732U 99025C   26047.14945755  .00000059  00000+0  49137-4 0  9994
2 25732  98.6670  91.9365 0037875  48.1954  19.6314 14.18260921385117
OKEAN-O                 
1 25860U 99039A   26047.15700445  .00000767  00000+0  10752-3 0  9993
2 25860  97.9491 107.2623 0001811  81.6639 278.4778 14.80299640431203
SL-16 R/B               
1 25861U 99039B   26047.15720629  .00000647  00000+0  88903-4 0  9991
2 25861  98.0013 106.2806 0014068 332.1828  27.8631 14.81700648433673
DELTA 2 R/B             
1 25876U 99041E   26047.27450850  .00002142  00000+0  38201-3 0  9996
2 25876  51.7658  26.8015 0502245 285.1790  69.4141 14.11756604360003
HELIOS 1B               
1 25977U 99064A   26047.25756697  .00001883  00000+0  21356-3 0  9993
2 25977  98.1722 308.8689 0002324 103.7728 256.3746 14.87606959682073
TERRA                   
1 25994U 99068A   26047.21212579  .00000487  00000+0  10830-3 0  9992
2 25994  97.9640 101.4623 0001182 221.1125 209.6572 14.60990974391945
SL-16 R/B               
1 26070U 00006B   26047.25180281 -.00000182  00000+0 -68252-4 0  9996
2 26070  71.0024 142.9137 0018046 220.3656 139.6129 14.15818730345529
TITAN 4B R/B            
1 26474U 00047B   26047.29368896  .00003393  00000+0  21693-3 0  9995
2 26474  67.9888 100.6680 0037134  61.5121 298.9760 15.09373021389682
ENVISAT                 
1 27386U 02009A   26047.28626373  .00000130  00000+0  55970-4 0  9996
2 27386  98.3693   1.3982 0001353  86.9429  79.7457 14.39028746256094
