CCSDS_OMM_VERS = 2.0
CREATION_DATE  = 
ORIGINATOR     = 

OBJECT_NAME    = SL-16 R/B
OBJECT_ID      = 1998-043G
CENTER_NAME    = EARTH
REF_FRAME      = TEME
TIME_SYSTEM    = UTC
MEAN_ELEMENT_THEORY = SGP/SGP4

EPOCH          = 2026-02-15T20:10:26.960448
MEAN_MOTION    = 14.26044501
ECCENTRICITY   = .0010961
INCLINATION    = 98.8217
RA_OF_ASC_NODE = 0.0542
ARG_OF_PERICENTER = 78.8254
MEAN_ANOMALY   = 281.4157

EPHEMERIS_TYPE = 0
CLASSIFICATION_TYPE = U
NORAD_CAT_ID   = 25400
ELEMENT_SET_NO = 999
REV_AT_EPOCH   = 43587
BSTAR          = .46957E-4
MEAN_MOTION_DOT = .67E-6
MEAN_MOTION_DDOT = 0

CCSDS_OMM_VERS = 2.0
CREATION_DATE  = 
ORIGINATOR     = 

OBJECT_NAME    = SL-16 R/B
OBJECT_ID      = 1998-045B
CENTER_NAME    = EARTH
REF_FRAME      = TEME
TIME_SYSTEM    = UTC
MEAN_ELEMENT_THEORY = SGP/SGP4

EPOCH          = 2026-02-15T23:01:37.172928
MEAN_MOTION    = 14.16188552
ECCENTRICITY   = .0005689
INCLINATION    = 71.0088
RA_OF_ASC_NODE = 227.2707
ARG_OF_PERICENTER = 47.5138
MEAN_ANOMALY   = 312.6465

EPHEMERIS_TYPE = 0
CLASSIFICATION_TYPE = U
NORAD_CAT_ID   = 25407
ELEMENT_SET_NO = 999
REV_AT_EPOCH   = 42402
BSTAR          = .18317E-3
MEAN_MOTION_DOT = .315E-5
MEAN_MOTION_DDOT = 0

CCSDS_OMM_VERS = 2.0
CREATION_DATE  = 
ORIGINATOR     = 

OBJECT_NAME    = ISS (ZARYA)
OBJECT_ID      = 1998-067A
CENTER_NAME    = EARTH
REF_FRAME      = TEME
TIME_SYSTEM    = UTC
MEAN_ELEMENT_THEORY = SGP/SGP4

EPOCH          = 2026-02-16T05:09:28.757088
MEAN_MOTION    = 15.48638586
ECCENTRICITY   = .00110177
INCLINATION    = 51.6319
RA_OF_ASC_NODE = 178.5071
ARG_OF_PERICENTER = 103.7643
MEAN_ANOMALY   = 256.4573

EPHEMERIS_TYPE = 0
CLASSIFICATION_TYPE = U
NORAD_CAT_ID   = 25544
ELEMENT_SET_NO = 999
REV_AT_EPOCH   = 55300
BSTAR          = .19659974E-3
MEAN_MOTION_DOT = .10277E-3
MEAN_MOTION_DDOT = 0

CCSDS_OMM_VERS = 2.0
CREATION_DATE  = 
ORIGINATOR     = 

OBJECT_NAME    = CZ-4B R/B
OBJECT_ID      = 1999-025C
CENTER_NAME    = EARTH
REF_FRAME      = TEME
TIME_SYSTEM    = UTC
MEAN_ELEMENT_THEORY = SGP/SGP4

EPOCH          = 2026-02-16T03:35:13.132320
MEAN_MOTION    = 14.18260921
ECCENTRICITY   = .00378755
INCLINATION    = 98.6670
RA_OF_ASC_NODE = 91.9365
ARG_OF_PERICENTER = 48.1954
MEAN_ANOMALY   = 19.6314

EPHEMERIS_TYPE = 0
CLASSIFICATION_TYPE = U
NORAD_CAT_ID   = 25732
ELEMENT_SET_NO = 999
REV_AT_EPOCH   = 38511
BSTAR          = .49137484E-4
MEAN_MOTION_DOT = .59E-6
MEAN_MOTION_DDOT = 0

CCSDS_OMM_VERS = 2.0
CREATION_DATE  = 
ORIGINATOR     = 

OBJECT_NAME    = OKEAN-O
OBJECT_ID      = 1999-039A
CENTER_NAME    = EARTH
REF_FRAME      = TEME
TIME_SYSTEM    = UTC
MEAN_ELEMENT_THEORY = SGP/SGP4

EPOCH          = 2026-02-16T03:46:05.184480
MEAN_MOTION    = 14.80299640
ECCENTRICITY   = .0001811
INCLINATION    = 97.9491
RA_OF_ASC_NODE = 107.2623
ARG_OF_PERICENTER = 81.6639
MEAN_ANOMALY   = 278.4778

EPHEMERIS_TYPE = 0
CLASSIFICATION_TYPE = U
NORAD_CAT_ID   = 25860
ELEMENT_SET_NO = 999
REV_AT_EPOCH   = 43120
BSTAR          = .10752338E-3
MEAN_MOTION_DOT = .767E-5
MEAN_MOTION_DDOT = 0

CCSDS_OMM_VERS = 2.0
CREATION_DATE  = 
ORIGINATOR     = 

OBJECT_NAME    = SL-16 R/B
OBJECT_ID      = 1999-039B
CENTER_NAME    = EARTH
REF_FRAME      = TEME
TIME_SYSTEM    = UTC
MEAN_ELEMENT_THEORY = SGP/SGP4

EPOCH          = 2026-02-16T03:46:22.623456
MEAN_MOTION    = 14.81700648
ECCENTRICITY   = .00140683
INCLINATION    = 98.0013
RA_OF_ASC_NODE = 106.2806
ARG_OF_PERICENTER = 332.1828
MEAN_ANOMALY   = 27.8631

EPHEMERIS_TYPE = 0
CLASSIFICATION_TYPE = U
NORAD_CAT_ID   = 25861
ELEMENT_SET_NO = 999
REV_AT_EPOCH   = 43367
BSTAR          = .88903039E-4
MEAN_MOTION_DOT = .647E-5
MEAN_MOTION_DDOT = 0

CCSDS_OMM_VERS = 2.0
CREATION_DATE  = 
ORIGINATOR     = 

OBJECT_NAME    = DELTA 2 R/B
OBJECT_ID      = 1999-041E
CENTER_NAME    = EARTH
REF_FRAME      = TEME
TIME_SYSTEM    = UTC
MEAN_ELEMENT_THEORY = SGP/SGP4

EPOCH          = 2026-02-16T06:35:17.534400
MEAN_MOTION    = 14.11756604
ECCENTRICITY   = .05022456
INCLINATION    = 51.7658
RA_OF_ASC_NODE = 26.8015
ARG_OF_PERICENTER = 285.1790
MEAN_ANOMALY   = 69.4141

EPHEMERIS_TYPE = 0
CLASSIFICATION_TYPE = U
NORAD_CAT_ID   = 25876
ELEMENT_SET_NO = 999
REV_AT_EPOCH   = 36000
BSTAR          = .38201067E-3
MEAN_MOTION_DOT = .2142E-4
MEAN_MOTION_DDOT = 0

CCSDS_OMM_VERS = 2.0
CREATION_DATE  = 
ORIGINATOR     = 

OBJECT_NAME    = HELIOS 1B
OBJECT_ID      = 1999-064A
CENTER_NAME    = EARTH
REF_FRAME      = TEME
TIME_SYSTEM    = UTC
MEAN_ELEMENT_THEORY = SGP/SGP4

EPOCH          = 2026-02-16T06:10:53.786208
MEAN_MOTION    = 14.87606959
ECCENTRICITY   = .00023246
INCLINATION    = 98.1722
RA_OF_ASC_NODE = 308.8689
ARG_OF_PERICENTER = 103.7728
MEAN_ANOMALY   = 256.3746

EPHEMERIS_TYPE = 0
CLASSIFICATION_TYPE = U
NORAD_CAT_ID   = 25977
ELEMENT_SET_NO = 999
REV_AT_EPOCH   = 68207
BSTAR          = .21356428E-3
MEAN_MOTION_DOT = .1883E-4
MEAN_MOTION_DDOT = 0

CCSDS_OMM_VERS = 2.0
CREATION_DATE  = 
ORIGINATOR     = 

OBJECT_NAME    = TERRA
OBJECT_ID      = 1999-068A
CENTER_NAME    = EARTH
REF_FRAME      = TEME
TIME_SYSTEM    = UTC
MEAN_ELEMENT_THEORY = SGP/SGP4

EPOCH          = 2026-02-16T05:05:27.668256
MEAN_MOTION    = 14.60990974
ECCENTRICITY   = .00011826
INCLINATION    = 97.9640
RA_OF_ASC_NODE = 101.4623
ARG_OF_PERICENTER = 221.1125
MEAN_ANOMALY   = 209.6572

EPHEMERIS_TYPE = 0
CLASSIFICATION_TYPE = U
NORAD_CAT_ID   = 25994
ELEMENT_SET_NO = 999
REV_AT_EPOCH   = 39194
BSTAR          = .10830247E-3
MEAN_MOTION_DOT = .487E-5
MEAN_MOTION_DDOT = 0

CCSDS_OMM_VERS = 2.0
CREATION_DATE  = 
ORIGINATOR     = 

OBJECT_NAME    = SL-16 R/B
OBJECT_ID      = 2000-006B
CENTER_NAME    = EARTH
REF_FRAME      = TEME
TIME_SYSTEM    = UTC
MEAN_ELEMENT_THEORY = SGP/SGP4

EPOCH          = 2026-02-16T06:02:35.762784
MEAN_MOTION    = 14.15818730
ECCENTRICITY   = .00180467
INCLINATION    = 71.0024
RA_OF_ASC_NODE = 142.9137
ARG_OF_PERICENTER = 220.3656
MEAN_ANOMALY   = 139.6129

EPHEMERIS_TYPE = 0
CLASSIFICATION_TYPE = U
NORAD_CAT_ID   = 26070
ELEMENT_SET_NO = 999
REV_AT_EPOCH   = 34552
BSTAR          = -.68251827E-4
MEAN_MOTION_DOT = -.182E-5
MEAN_MOTION_DDOT = 0

CCSDS_OMM_VERS = 2.0
CREATION_DATE  = 
ORIGINATOR     = 

OBJECT_NAME    = TITAN 4B R/B
OBJECT_ID      = 2000-047B
CENTER_NAME    = EARTH
REF_FRAME      = TEME
TIME_SYSTEM    = UTC
MEAN_ELEMENT_THEORY = SGP/SGP4

EPOCH          = 2026-02-16T07:02:54.726144
MEAN_MOTION    = 15.09373021
ECCENTRICITY   = .00371345
INCLINATION    = 67.9888
RA_OF_ASC_NODE = 100.6680
ARG_OF_PERICENTER = 61.5121
MEAN_ANOMALY   = 298.9760

EPHEMERIS_TYPE = 0
CLASSIFICATION_TYPE = U
NORAD_CAT_ID   = 26474
ELEMENT_SET_NO = 999
REV_AT_EPOCH   = 38968
BSTAR          = .21693048E-3
MEAN_MOTION_DOT = .3393E-4
MEAN_MOTION_DDOT = 0

CCSDS_OMM_VERS = 2.0
CREATION_DATE  = 
ORIGINATOR     = 

OBJECT_NAME    = ENVISAT
OBJECT_ID      = 2002-009A
CENTER_NAME    = EARTH
REF_FRAME      = TEME
TIME_SYSTEM    = UTC
MEAN_ELEMENT_THEORY = SGP/SGP4

EPOCH          = 2026-02-16T06:52:13.186272
MEAN_MOTION    = 14.39028746
ECCENTRICITY   = .00013538
INCLINATION    = 98.3693
RA_OF_ASC_NODE = 1.3982
ARG_OF_PERICENTER = 86.9429
MEAN_ANOMALY   = 79.7457

EPHEMERIS_TYPE = 0
CLASSIFICATION_TYPE = U
NORAD_CAT_ID   = 27386
ELEMENT_SET_NO = 999
REV_AT_EPOCH   = 25609
BSTAR          = .55969621E-4
MEAN_MOTION_DOT = .13E-5
MEAN_MOTION_DDOT = 0

